satname,norad_id,inclination_deg,eccentricity,mean_motion_rev_per_day,perigee_km,apogee_km,l1,l2
STARLINK-1273,45367,53.0524,0.0001346,15.06404973,546.264166587056,548.128466315844,1 45367U 20019H   25282.84130336  .00002213  00000+0  16740-3 0  9992,2 45367  53.0524 123.8031 0001346  93.5887 266.5256 15.06404973306996
STARLINK-1276,45368,53.0541,0.0001283,15.06397476,546.33077043308,548.1078168580298,1 45368U 20019J   25282.28104223  .00000966  00000+0  83749-4 0  9994,2 45368  53.0541 126.3202 0001283  92.0565 268.0571 15.06397476306919
STARLINK-1277,45369,53.0539,0.0001521,15.06400685,546.1561133163914,548.2628037090717,1 45369U 20019K   25282.60547644  .00001664  00000+0  13055-3 0  9997,2 45369  53.0539 125.4907 0001521  93.3343 266.7820 15.06400685306955
STARLINK-1281,45370,53.0526,0.0001334,15.06405514,546.2708191307602,548.1184976172144,1 45370U 20019L   25282.26997532  .00000444  00000+0  48725-4 0  9994,2 45370  53.0526 126.3688 0001334  95.9275 264.1866 15.06405514306917
STARLINK-1300,45374,53.0542,0.0001258,15.06402618,546.3323263177626,548.0747419961554,1 45374U 20019Q   25282.55748521  .00001630  00000+0  12830-3 0  9997,2 45374  53.0542 125.0759 0001258  93.3380 266.7752 15.06402618306956
STARLINK-1302,45375,53.0528,0.0001489,15.06403234,546.1704632873698,548.232829136211,1 45375U 20019R   25282.57222642  .00001664  00000+0  13060-3 0  9994,2 45375  53.0528 125.0116 0001489  93.9411 266.1748 15.06403234306959
STARLINK-1304,45376,53.0515,0.0001356,15.06406053,546.2539316783177,548.1320811760597,1 45376U 20019S   25281.99353626  .00001202  00000+0  99552-4 0  9996,2 45376  53.0515 127.6090 0001356  95.5082 264.6062 15.06406053306864
STARLINK-1305,45377,53.0521,0.0001265,15.06431106,546.2401796359782,547.9922687016924,1 45377U 20019T   25282.01933511  .00009953  00000+0  68552-3 0  9994,2 45377  53.0521 127.4905 0001265  88.4056 271.7078 15.06431106306870
STARLINK-1319,45379,53.0543,0.0001536,15.06399591,546.1490777336139,548.2765451956957,1 45379U 20019V   25282.27735338  .00002052  00000+0  15664-3 0  9990,2 45379  53.0543 126.3374 0001536  87.6953 272.4212 15.06399591306916
STARLINK-1266,45383,53.0547,0.000122,15.06403045,546.3573340820521,548.0471168530648,1 45383U 20019Z   25282.21283628  .00000592  00000+0  58654-4 0  9993,2 45383  53.0547 106.6255 0001220  90.7069 269.4060 15.06403045307173
STARLINK-1267,45384,53.0538,0.0001345,15.06401771,546.2746714326695,548.1375887346612,1 45384U 20019AA  25281.93279605  .00001329  00000+0  10810-3 0  9992,2 45384  53.0538 108.5382 0001345  89.9753 270.1390 15.06401771307128
STARLINK-1272,45386,53.0527,0.0001624,15.06405275,546.0707168899162,548.3200648504708,1 45386U 20019AC  25282.20547140  .00003523  00000+0  25524-3 0  9993,2 45386  53.0527 106.6591 0001624  82.1703 277.9470 15.06405275307171
STARLINK-1274,45387,53.0402,0.0006309,15.26795142,481.07004429015706,489.7304555921319,1 45387U 20019AD  25282.87251536  .00041476  00000+0  15577-2 0  9993,2 45387  53.0402  92.2202 0006309 153.0683 207.0643 15.26795142307435
STARLINK-1280,45388,53.0527,0.0001553,15.06406353,546.1165833694995,548.2675905839142,1 45388U 20019AE  25282.59434120  .00000342  00000+0  41828-4 0  9992,2 45388  53.0527 124.9122 0001553  85.7742 274.3424 15.06406353306941
STARLINK-1283,45389,53.0534,0.0001318,15.16454653,515.6571667141816,517.474610395604,1 45389U 20019AF  25282.02310460  .00544175  00000+0  25925-1 0  9995,2 45389  53.0534 107.2656 0001318  46.4934 313.6169 15.16454653307156
STARLINK-1284,45390,53.0491,0.000124,15.06372254,546.4378429713834,548.1553505033753,1 45390U 20019AG  25282.54829446 -.00001460  00000+0 -79211-4 0  9990,2 45390  53.0491 105.1214 0001240  39.7545 320.3535 15.06372254307229
STARLINK-1292,45394,53.0495,0.0006843,15.81069049,322.82765503507926,332.0048752337425,1 45394U 20019AL  25281.85673634  .00394230  00000+0  18922-2 0  9991,2 45394  53.0495  71.5635 0006843 253.8929 106.1339 15.81069049307375
STARLINK-1297,45395,53.0553,0.0001353,15.06388818,546.3088250729597,548.1828336665858,1 45395U 20019AM  25282.51878374  .00001372  00000+0  11098-3 0  9994,2 45395  53.0553 105.2502 0001353  94.9272 265.1872 15.06388818306401
STARLINK-1307,45397,53.0539,0.000128,15.06406545,546.3050564807472,548.0779405763706,1 45397U 20019AP  25282.51139981  .00001374  00000+0  11109-3 0  9995,2 45397  53.0539 105.2827 0001280  91.0537 269.0599 15.06406545307046
STARLINK-1312,45398,53.0436,0.0002859,15.81521945,324.2192853884999,328.05278871108476,1 45398U 20019AQ  25282.71578985  .00317242  00000+0  15065-2 0  9997,2 45398  53.0436  66.8150 0002859 188.2028 171.8948 15.81521945307538
STARLINK-1255,45399,53.0494,0.0002322,15.06407019,545.581984857693,548.7981067377605,1 45399U 20019AR  25282.47915251  .00000602  00000+0  59354-4 0  9992,2 45399  53.0494  95.4300 0002322  86.4694 273.6560 15.06407019307163
STARLINK-1259,45403,53.046,0.0001308,15.95522791,285.98629923045064,287.72986194353234,1 45403U 20019AV  25282.37068418  .00408578  78069-4  10057-2 0  9995,2 45403  53.0460  48.8044 0001308  47.9434 312.1704 15.95522791307809
STARLINK-1260,45404,53.0514,0.0001946,15.06399928,545.8641057355981,548.5594514802315,1 45404U 20019AW  25282.44599041 -.00000728  00000+0 -29947-4 0  9997,2 45404  53.0514  95.5766 0001946  78.1315 281.9892 15.06399928307067
STARLINK-1263,45405,53.0538,0.0001487,15.06409268,546.1533578919953,548.2129481054963,1 45405U 20019AX  25282.82932632  .00004496  00000+0  32048-3 0  9996,2 45405  53.0538  93.8571 0001487  89.2797 270.8362 15.06409268307121
STARLINK-1265,45406,53.0546,0.0001628,15.06415738,546.0358847622101,548.2907625475927,1 45406U 20019AY  25282.83667547  .00002448  00000+0  18314-3 0  9993,2 45406  53.0546  93.8238 0001628 102.6917 257.4254 15.06415738307122
STARLINK-1278,45408,53.0522,0.0001584,15.06398939,546.1178340257093,548.311785479038,1 45408U 20019BA  25282.59801977 -.00002760  00000+0 -16645-3 0  9999,2 45408  53.0522 124.8952 0001584  97.6137 262.5032 15.06398939306677
STARLINK-1296,45412,53.0537,0.0001365,15.06407232,546.2440859359094,548.1347000411943,1 45412U 20019BE  25282.50863478  .00000838  00000+0  75103-4 0  9996,2 45412  53.0537  95.2959 0001365  89.7519 270.3626 15.06407232307077
STARLINK-1298,45413,53.0503,0.0008557,15.47133117,419.2959876221994,430.9390774291642,1 45413U 20019BF  25282.45621117  .00120458  00000+0  23064-2 0  9991,2 45413  53.0503  78.4572 0008557 180.4455 179.6546 15.47133117307405
STARLINK-1309,45414,53.0547,0.0001515,15.06403733,546.1509282813513,548.2493054277593,1 45414U 20019BG  25282.45703551  .00000262  00000+0  36494-4 0  9998,2 45414  53.0547  95.5282 0001515  83.9813 276.1348 15.06403733307057
STARLINK-1316,45415,53.0547,0.0001243,15.06397897,546.3571817109741,548.078824964804,1 45415U 20019BH  25282.48284234 -.00000145  00000+0  91414-5 0  9999,2 45415  53.0547  95.4105 0001243  91.5996 268.5135 15.06397897307092
STARLINK-1318,45416,53.0519,0.0001561,15.57726893,393.1802860873131,395.2946213917712,1 45416U 20019BJ  25282.44321197  .00053632  00000+0  71193-3 0  9994,2 45416  53.0519  71.4933 0001561 329.1761  30.9158 15.57726893307418
STARLINK-1286,45417,53.0503,0.0001712,15.06393042,546.0472599642062,548.4185066122454,1 45417U 20019BK  25282.85235052 -.00003529  00000+0 -21818-3 0  9995,2 45417  53.0503 123.7529 0001712  90.9240 269.1945 15.06393042306988
STARLINK-1308,45419,53.0524,0.0001503,15.0641031,546.1390843144036,548.2208345924155,1 45419U 20019BM  25282.84866588  .00002005  00000+0  15340-3 0  9999,2 45419  53.0524 123.7703 0001503  89.2303 270.8859 15.06410310306730
STARLINK-1329,45531,53.0534,0.0001529,15.06408018,546.128101994921,548.2458660692382,1 45531U 20025A   25282.75097786  .00000723  00000+0  67431-4 0  9991,2 45531  53.0534  64.2072 0001529  84.4644 275.6519 15.06408018302348
STARLINK-1338,45532,53.054,0.000146,15.06420431,546.137848826279,548.1600323209268,1 45532U 20025B   25282.76204089  .00003881  00000+0  27914-3 0  9998,2 45532  53.0540  64.1551 0001460  72.8217 287.2931 15.06420431302348
STARLINK-1350,45535,53.0758,9.1e-05,15.31571468,470.49988654902427,471.7464518998231,1 45535U 20025E   25282.62927400  .00013471  00000+0  44684-3 0  9994,2 45535  53.0758  20.2043 0000910 104.6542 255.4559 15.31571468302972
STARLINK-1362,45538,53.0537,9.39e-05,15.06402152,546.5546727658075,547.8552519863406,1 45538U 20025H   25282.79425403  .00006778  00000+0  47342-3 0  9997,2 45538  53.0537  63.7313 0000939 107.4473 252.6619 15.06402152302350
STARLINK-1368,45540,53.0552,0.0001378,15.06401384,546.2530037340885,548.1616286276276,1 45540U 20025K   25282.79890701  .00000674  00000+0  64154-4 0  9997,2 45540  53.0552  63.9913 0001378  89.2570 270.8577 15.06401384302341
STARLINK-1371,45542,53.0545,0.0001298,15.06408453,546.2867439518004,548.0845577119562,1 45542U 20025M   25282.76940919  .00001729  00000+0  13493-3 0  9994,2 45542  53.0545  64.1238 0001298  95.2157 264.8980 15.06408453302342
STARLINK-1372,45543,53.0544,0.0001332,15.06406845,546.2681254450445,548.1130327121109,1 45543U 20025N   25282.80626471  .00001203  00000+0  99615-4 0  9992,2 45543  53.0544  63.9584 0001332  88.8573 271.2569 15.06406845301440
STARLINK-1373,45544,53.0526,0.0001405,15.06406527,546.2185450337729,548.1645623573613,1 45544U 20025P   25282.82469544  .00001210  00000+0  10010-3 0  9990,2 45544  53.0526  63.8768 0001405  91.5184 268.5965 15.06406527302351
STARLINK-1294,45551,53.0519,0.0006556,15.56180283,394.28095105018474,403.16677101116875,1 45551U 20025W   25282.61703125  .00056232  00000+0  78942-3 0  9993,2 45551  53.0519   5.9372 0006556 332.2376  27.8284 15.56180283303151
STARLINK-1323,45553,53.0324,0.0005224,16.0537317,256.0988416561113,263.03391414534235,1 45553U 20025Y   25282.56835273  .00621803  19855-3  86453-3 0  9999,2 45553  53.0324 343.3257 0005224  39.5785 320.5627 16.05373170302168
